[{"OBJECT_NAME":"STARLINK-6290","OBJECT_ID":"2023-099A","EPOCH":"2026-03-09T13:30:49.248864","MEAN_MOTION":15.02535354,"ECCENTRICITY":0.00015527,"INCLINATION":43.0031,"RA_OF_ASC_NODE":249.9992,"ARG_OF_PERICENTER":274.8014,"MEAN_ANOMALY":85.2651,"EPHEMERIS_TYPE":0,"CLASSIFICATION_TYPE":"U","NORAD_CAT_ID":57328,"ELEMENT_SET_NO":999,"REV_AT_EPOCH":14700,"BSTAR":-1.9158735e-5,"MEAN_MOTION_DOT":-4.62e-6,"MEAN_MOTION_DDOT":0},{"OBJECT_NAME":"CZ-4B DEB","OBJECT_ID":"1999-057KD","EPOCH":"2026-03-09T21:11:33.062784","MEAN_MOTION":14.92997204,"ECCENTRICITY":0.00562796,"INCLINATION":98.5504,"RA_OF_ASC_NODE":202.6828,"ARG_OF_PERICENTER":125.3801,"MEAN_ANOMALY":235.2692,"EPHEMERIS_TYPE":0,"CLASSIFICATION_TYPE":"U","NORAD_CAT_ID":26432,"ELEMENT_SET_NO":999,"REV_AT_EPOCH":35696,"BSTAR":0.0033240821,"MEAN_MOTION_DOT":0.00035726,"MEAN_MOTION_DDOT":0}]
